<?xml version="1.0" encoding="UTF-8"?>
<gpx creator="https://gpx.studio" version="1.1" schemaLocation="http://www.topografix.com/GPX/1/1 http://www.topografix.com/GPX/1/1/gpx.xsd http://www.garmin.com/xmlschemas/GpxExtensions/v3 http://www.garmin.com/xmlschemas/GpxExtensionsv3.xsd http://www.garmin.com/xmlschemas/TrackPointExtension/v1 http://www.garmin.com/xmlschemas/TrackPointExtensionv1.xsd http://www.garmin.com/xmlschemas/PowerExtension/v1 http://www.garmin.com/xmlschemas/PowerExtensionv1.xsd http://www.topografix.com/GPX/gpx_style/0/2 http://www.topografix.com/GPX/gpx_style/0/2/gpx_style.xsd" xmlns="http://www.topografix.com/GPX/1/1" xmlns:xsi="http://www.w3.org/2001/XMLSchema-instance" xsi:schemaLocation="http://www.topografix.com/GPX/1/1 http://www.topografix.com/GPX/1/1/gpx.xsd http://www.garmin.com/xmlschemas/GpxExtensions/v3 http://www.garmin.com/xmlschemas/GpxExtensionsv3.xsd http://www.garmin.com/xmlschemas/TrackPointExtension/v1 http://www.garmin.com/xmlschemas/TrackPointExtensionv1.xsd http://www.garmin.com/xmlschemas/PowerExtension/v1 http://www.garmin.com/xmlschemas/PowerExtensionv1.xsd http://www.topografix.com/GPX/gpx_style/0/2 http://www.topografix.com/GPX/gpx_style/0/2/gpx_style.xsd" xmlns:gpxtpx="http://www.garmin.com/xmlschemas/TrackPointExtension/v1" xmlns:gpxx="http://www.garmin.com/xmlschemas/GpxExtensions/v3" xmlns:gpxpx="http://www.garmin.com/xmlschemas/PowerExtension/v1" xmlns:gpx_style="http://www.topografix.com/GPX/gpx_style/0/2">
  <metadata>
    <name>gita porter</name>
    <author>
      <name>gpx.studio</name>
      <link href="https://gpx.studio"/>
    </author>
  </metadata>
  <trk>
    <name>gita porter</name>
    <trkseg>
      <trkpt lat="43.794087" lon="11.156284">
        <ele>40.14</ele>
      </trkpt>
      <trkpt lat="43.794084" lon="11.15633">
        <ele>40.4</ele>
      </trkpt>
      <trkpt lat="43.794061" lon="11.15638">
        <ele>40.69</ele>
      </trkpt>
      <trkpt lat="43.794033" lon="11.156393">
        <ele>40.77</ele>
      </trkpt>
      <trkpt lat="43.79396" lon="11.156403">
        <ele>40.83</ele>
      </trkpt>
      <trkpt lat="43.794033" lon="11.156393">
        <ele>40.77</ele>
      </trkpt>
      <trkpt lat="43.794061" lon="11.15638">
        <ele>40.69</ele>
      </trkpt>
      <trkpt lat="43.794084" lon="11.15633">
        <ele>40.4</ele>
      </trkpt>
      <trkpt lat="43.794092" lon="11.156058">
        <ele>39.22</ele>
      </trkpt>
      <trkpt lat="43.794094" lon="11.156007">
        <ele>39.12</ele>
      </trkpt>
      <trkpt lat="43.794071" lon="11.155944">
        <ele>39.01</ele>
      </trkpt>
      <trkpt lat="43.794052" lon="11.155929">
        <ele>39</ele>
      </trkpt>
      <trkpt lat="43.793981" lon="11.155933">
        <ele>39</ele>
      </trkpt>
      <trkpt lat="43.793956" lon="11.155935">
        <ele>39</ele>
      </trkpt>
      <trkpt lat="43.793969" lon="11.155364">
        <ele>36.78</ele>
      </trkpt>
      <trkpt lat="43.79398" lon="11.155119">
        <ele>36</ele>
      </trkpt>
      <trkpt lat="43.794661" lon="11.155404">
        <ele>38.98</ele>
      </trkpt>
      <trkpt lat="43.79398" lon="11.155119">
        <ele>36</ele>
      </trkpt>
      <trkpt lat="43.794005" lon="11.154508">
        <ele>36</ele>
      </trkpt>
      <trkpt lat="43.793999" lon="11.154236">
        <ele>36</ele>
      </trkpt>
      <trkpt lat="43.793983" lon="11.15395">
        <ele>36</ele>
      </trkpt>
      <trkpt lat="43.793989" lon="11.153834">
        <ele>36</ele>
      </trkpt>
      <trkpt lat="43.794023" lon="11.153682">
        <ele>36</ele>
      </trkpt>
      <trkpt lat="43.794093" lon="11.153497">
        <ele>36</ele>
      </trkpt>
      <trkpt lat="43.79451" lon="11.152544">
        <ele>36</ele>
      </trkpt>
      <trkpt lat="43.795133" lon="11.151211">
        <ele>36</ele>
      </trkpt>
      <trkpt lat="43.795315" lon="11.150863">
        <ele>36</ele>
      </trkpt>
      <trkpt lat="43.795639" lon="11.151122">
        <ele>36</ele>
      </trkpt>
      <trkpt lat="43.796116" lon="11.151372">
        <ele>37.79</ele>
      </trkpt>
      <trkpt lat="43.796437" lon="11.151583">
        <ele>39.8</ele>
      </trkpt>
      <trkpt lat="43.796079" lon="11.15245">
        <ele>39.34</ele>
      </trkpt>
      <trkpt lat="43.795253" lon="11.15174">
        <ele>36.4</ele>
      </trkpt>
      <trkpt lat="43.795333" lon="11.151565">
        <ele>36.15</ele>
      </trkpt>
      <trkpt lat="43.795253" lon="11.15174">
        <ele>36.4</ele>
      </trkpt>
      <trkpt lat="43.796079" lon="11.15245">
        <ele>39.34</ele>
      </trkpt>
      <trkpt lat="43.796278" lon="11.151969">
        <ele>40</ele>
      </trkpt>
      <trkpt lat="43.79563" lon="11.151427">
        <ele>36.4</ele>
      </trkpt>
      <trkpt lat="43.796278" lon="11.151969">
        <ele>40</ele>
      </trkpt>
      <trkpt lat="43.796437" lon="11.151583">
        <ele>39.8</ele>
      </trkpt>
      <trkpt lat="43.796116" lon="11.151372">
        <ele>37.79</ele>
      </trkpt>
      <trkpt lat="43.796582" lon="11.1503">
        <ele>36</ele>
      </trkpt>
      <trkpt lat="43.796886" lon="11.150554">
        <ele>36</ele>
      </trkpt>
      <trkpt lat="43.796582" lon="11.1503">
        <ele>36</ele>
      </trkpt>
      <trkpt lat="43.796744" lon="11.149928">
        <ele>36.62</ele>
      </trkpt>
      <trkpt lat="43.796582" lon="11.1503">
        <ele>36</ele>
      </trkpt>
      <trkpt lat="43.796122" lon="11.149927">
        <ele>36</ele>
      </trkpt>
      <trkpt lat="43.796036" lon="11.15014">
        <ele>36</ele>
      </trkpt>
      <trkpt lat="43.796122" lon="11.149927">
        <ele>36</ele>
      </trkpt>
      <trkpt lat="43.796582" lon="11.1503">
        <ele>36</ele>
      </trkpt>
      <trkpt lat="43.796116" lon="11.151372">
        <ele>37.79</ele>
      </trkpt>
      <trkpt lat="43.795639" lon="11.151122">
        <ele>36</ele>
      </trkpt>
      <trkpt lat="43.795315" lon="11.150863">
        <ele>36</ele>
      </trkpt>
      <trkpt lat="43.795514" lon="11.150374">
        <ele>36</ele>
      </trkpt>
      <trkpt lat="43.79561" lon="11.150189">
        <ele>36</ele>
      </trkpt>
      <trkpt lat="43.795275" lon="11.149895">
        <ele>36.28</ele>
      </trkpt>
      <trkpt lat="43.795261" lon="11.149795">
        <ele>36.73</ele>
      </trkpt>
      <trkpt lat="43.795257" lon="11.149759">
        <ele>36.89</ele>
      </trkpt>
      <trkpt lat="43.79497" lon="11.149492">
        <ele>37</ele>
      </trkpt>
      <trkpt lat="43.794968" lon="11.149498">
        <ele>36.99</ele>
      </trkpt>
      <trkpt lat="43.794852" lon="11.149777">
        <ele>36.59</ele>
      </trkpt>
      <trkpt lat="43.794833" lon="11.149823">
        <ele>36.53</ele>
      </trkpt>
      <trkpt lat="43.795191" lon="11.150096">
        <ele>36</ele>
      </trkpt>
      <trkpt lat="43.795173" lon="11.15014">
        <ele>36</ele>
      </trkpt>
      <trkpt lat="43.795097" lon="11.150322">
        <ele>36</ele>
      </trkpt>
      <trkpt lat="43.795024" lon="11.150498">
        <ele>36</ele>
      </trkpt>
      <trkpt lat="43.794832" lon="11.150357">
        <ele>36</ele>
      </trkpt>
      <trkpt lat="43.794574" lon="11.150132">
        <ele>36</ele>
      </trkpt>
      <trkpt lat="43.794353" lon="11.149877">
        <ele>36</ele>
      </trkpt>
      <trkpt lat="43.794176" lon="11.150456">
        <ele>36</ele>
      </trkpt>
      <trkpt lat="43.794092" lon="11.150763">
        <ele>36</ele>
      </trkpt>
      <trkpt lat="43.793758" lon="11.152411">
        <ele>36</ele>
      </trkpt>
      <trkpt lat="43.793697" lon="11.152796">
        <ele>36</ele>
      </trkpt>
      <trkpt lat="43.794114" lon="11.152961">
        <ele>36</ele>
      </trkpt>
      <trkpt lat="43.794132" lon="11.152927">
        <ele>36</ele>
      </trkpt>
      <trkpt lat="43.794285" lon="11.153052">
        <ele>36</ele>
      </trkpt>
      <trkpt lat="43.794843" lon="11.15182">
        <ele>36</ele>
      </trkpt>
      <trkpt lat="43.795133" lon="11.151211">
        <ele>36</ele>
      </trkpt>
      <trkpt lat="43.795315" lon="11.150863">
        <ele>36</ele>
      </trkpt>
      <trkpt lat="43.795514" lon="11.150374">
        <ele>36</ele>
      </trkpt>
      <trkpt lat="43.79561" lon="11.150189">
        <ele>36</ele>
      </trkpt>
      <trkpt lat="43.795275" lon="11.149895">
        <ele>36.28</ele>
      </trkpt>
      <trkpt lat="43.795191" lon="11.150096">
        <ele>36</ele>
      </trkpt>
      <trkpt lat="43.795435" lon="11.150275">
        <ele>36</ele>
      </trkpt>
      <trkpt lat="43.795435" lon="11.150275">
        <ele>36</ele>
      </trkpt>
      <trkpt lat="43.795528" lon="11.150343">
        <ele>36</ele>
      </trkpt>
      <trkpt lat="43.79561" lon="11.150189">
        <ele>36</ele>
      </trkpt>
      <trkpt lat="43.795874" lon="11.149634">
        <ele>37</ele>
      </trkpt>
      <trkpt lat="43.795687" lon="11.149468">
        <ele>37</ele>
      </trkpt>
      <trkpt lat="43.795817" lon="11.149171">
        <ele>37</ele>
      </trkpt>
      <trkpt lat="43.79536" lon="11.148761">
        <ele>37</ele>
      </trkpt>
      <trkpt lat="43.795226" lon="11.14864">
        <ele>37</ele>
      </trkpt>
      <trkpt lat="43.795228" lon="11.148637">
        <ele>37</ele>
      </trkpt>
      <trkpt lat="43.795228" lon="11.148637">
        <ele>37</ele>
      </trkpt>
      <trkpt lat="43.795226" lon="11.14864">
        <ele>37</ele>
      </trkpt>
      <trkpt lat="43.79536" lon="11.148761">
        <ele>37</ele>
      </trkpt>
      <trkpt lat="43.795448" lon="11.14884">
        <ele>37</ele>
      </trkpt>
      <trkpt lat="43.795464" lon="11.148808">
        <ele>37</ele>
      </trkpt>
      <trkpt lat="43.795643" lon="11.148457">
        <ele>37</ele>
      </trkpt>
      <trkpt lat="43.795528" lon="11.148351">
        <ele>37</ele>
      </trkpt>
      <trkpt lat="43.795424" lon="11.148255">
        <ele>37</ele>
      </trkpt>
      <trkpt lat="43.795276" lon="11.148543">
        <ele>37</ele>
      </trkpt>
      <trkpt lat="43.795226" lon="11.14864">
        <ele>37</ele>
      </trkpt>
      <trkpt lat="43.79536" lon="11.148761">
        <ele>37</ele>
      </trkpt>
      <trkpt lat="43.79601" lon="11.149345">
        <ele>37</ele>
      </trkpt>
      <trkpt lat="43.796276" lon="11.148775">
        <ele>37.63</ele>
      </trkpt>
      <trkpt lat="43.796174" lon="11.148679">
        <ele>38</ele>
      </trkpt>
      <trkpt lat="43.796292" lon="11.148424">
        <ele>38</ele>
      </trkpt>
      <trkpt lat="43.796174" lon="11.148679">
        <ele>38</ele>
      </trkpt>
      <trkpt lat="43.796276" lon="11.148775">
        <ele>37.63</ele>
      </trkpt>
      <trkpt lat="43.796493" lon="11.148328">
        <ele>38</ele>
      </trkpt>
      <trkpt lat="43.797004" lon="11.147122">
        <ele>35</ele>
      </trkpt>
      <trkpt lat="43.797518" lon="11.147581">
        <ele>35</ele>
      </trkpt>
      <trkpt lat="43.797807" lon="11.147029">
        <ele>35</ele>
      </trkpt>
      <trkpt lat="43.797526" lon="11.14674">
        <ele>35</ele>
      </trkpt>
      <trkpt lat="43.797807" lon="11.147029">
        <ele>35</ele>
      </trkpt>
      <trkpt lat="43.797661" lon="11.147316">
        <ele>35</ele>
      </trkpt>
      <trkpt lat="43.797422" lon="11.14708">
        <ele>35</ele>
      </trkpt>
      <trkpt lat="43.797661" lon="11.147316">
        <ele>35</ele>
      </trkpt>
      <trkpt lat="43.797518" lon="11.147581">
        <ele>35</ele>
      </trkpt>
      <trkpt lat="43.797004" lon="11.147122">
        <ele>35</ele>
      </trkpt>
      <trkpt lat="43.797513" lon="11.145881">
        <ele>35</ele>
      </trkpt>
      <trkpt lat="43.798253" lon="11.146509">
        <ele>35.08</ele>
      </trkpt>
      <trkpt lat="43.797513" lon="11.145881">
        <ele>35</ele>
      </trkpt>
      <trkpt lat="43.797748" lon="11.14531">
        <ele>35</ele>
      </trkpt>
      <trkpt lat="43.798567" lon="11.146003">
        <ele>35.97</ele>
      </trkpt>
      <trkpt lat="43.797748" lon="11.14531">
        <ele>35</ele>
      </trkpt>
      <trkpt lat="43.798176" lon="11.144277">
        <ele>35</ele>
      </trkpt>
      <trkpt lat="43.799061" lon="11.145018">
        <ele>35.97</ele>
      </trkpt>
      <trkpt lat="43.798176" lon="11.144277">
        <ele>35</ele>
      </trkpt>
      <trkpt lat="43.79857" lon="11.143307">
        <ele>35</ele>
      </trkpt>
      <trkpt lat="43.79896" lon="11.143591">
        <ele>35</ele>
      </trkpt>
      <trkpt lat="43.79857" lon="11.143307">
        <ele>35</ele>
      </trkpt>
      <trkpt lat="43.798831" lon="11.142644">
        <ele>35</ele>
      </trkpt>
      <trkpt lat="43.798981" lon="11.1423">
        <ele>35</ele>
      </trkpt>
      <trkpt lat="43.799063" lon="11.142191">
        <ele>35.2</ele>
      </trkpt>
      <trkpt lat="43.799119" lon="11.142141">
        <ele>35.7</ele>
      </trkpt>
      <trkpt lat="43.79919" lon="11.142117">
        <ele>36</ele>
      </trkpt>
      <trkpt lat="43.79928" lon="11.142131">
        <ele>36</ele>
      </trkpt>
      <trkpt lat="43.799344" lon="11.142187">
        <ele>36</ele>
      </trkpt>
      <trkpt lat="43.79942" lon="11.142212">
        <ele>36</ele>
      </trkpt>
      <trkpt lat="43.799488" lon="11.142216">
        <ele>36</ele>
      </trkpt>
      <trkpt lat="43.799576" lon="11.142174">
        <ele>36</ele>
      </trkpt>
      <trkpt lat="43.799598" lon="11.142152">
        <ele>36</ele>
      </trkpt>
      <trkpt lat="43.799723" lon="11.142079">
        <ele>36</ele>
      </trkpt>
      <trkpt lat="43.799782" lon="11.142062">
        <ele>36</ele>
      </trkpt>
      <trkpt lat="43.799874" lon="11.142056">
        <ele>36</ele>
      </trkpt>
      <trkpt lat="43.800015" lon="11.142074">
        <ele>35.09</ele>
      </trkpt>
      <trkpt lat="43.800557" lon="11.142264">
        <ele>35</ele>
      </trkpt>
      <trkpt lat="43.800574" lon="11.142137">
        <ele>35</ele>
      </trkpt>
      <trkpt lat="43.800569" lon="11.14208">
        <ele>35</ele>
      </trkpt>
      <trkpt lat="43.800524" lon="11.141988">
        <ele>35</ele>
      </trkpt>
      <trkpt lat="43.800477" lon="11.141932">
        <ele>35</ele>
      </trkpt>
      <trkpt lat="43.800352" lon="11.141855">
        <ele>35</ele>
      </trkpt>
      <trkpt lat="43.79978" lon="11.141572">
        <ele>35.99</ele>
      </trkpt>
      <trkpt lat="43.799725" lon="11.141532">
        <ele>36</ele>
      </trkpt>
      <trkpt lat="43.799632" lon="11.141329">
        <ele>36.82</ele>
      </trkpt>
      <trkpt lat="43.799613" lon="11.141263">
        <ele>37</ele>
      </trkpt>
      <trkpt lat="43.799603" lon="11.141192">
        <ele>37</ele>
      </trkpt>
      <trkpt lat="43.799612" lon="11.141109">
        <ele>37</ele>
      </trkpt>
      <trkpt lat="43.799637" lon="11.141003">
        <ele>37</ele>
      </trkpt>
      <trkpt lat="43.800061" lon="11.140124">
        <ele>38</ele>
      </trkpt>
      <trkpt lat="43.800126" lon="11.14001">
        <ele>38.08</ele>
      </trkpt>
      <trkpt lat="43.800061" lon="11.140124">
        <ele>38</ele>
      </trkpt>
      <trkpt lat="43.799637" lon="11.141003">
        <ele>37</ele>
      </trkpt>
      <trkpt lat="43.799612" lon="11.141109">
        <ele>37</ele>
      </trkpt>
      <trkpt lat="43.799603" lon="11.141192">
        <ele>37</ele>
      </trkpt>
      <trkpt lat="43.799613" lon="11.141263">
        <ele>37</ele>
      </trkpt>
      <trkpt lat="43.799632" lon="11.141329">
        <ele>36.82</ele>
      </trkpt>
      <trkpt lat="43.799725" lon="11.141532">
        <ele>36</ele>
      </trkpt>
      <trkpt lat="43.79978" lon="11.141572">
        <ele>35.99</ele>
      </trkpt>
      <trkpt lat="43.800352" lon="11.141855">
        <ele>35</ele>
      </trkpt>
      <trkpt lat="43.800477" lon="11.141932">
        <ele>35</ele>
      </trkpt>
      <trkpt lat="43.800524" lon="11.141988">
        <ele>35</ele>
      </trkpt>
      <trkpt lat="43.800569" lon="11.14208">
        <ele>35</ele>
      </trkpt>
      <trkpt lat="43.800574" lon="11.142137">
        <ele>35</ele>
      </trkpt>
      <trkpt lat="43.800557" lon="11.142264">
        <ele>35</ele>
      </trkpt>
      <trkpt lat="43.800527" lon="11.142329">
        <ele>35</ele>
      </trkpt>
      <trkpt lat="43.800423" lon="11.142474">
        <ele>35</ele>
      </trkpt>
      <trkpt lat="43.800388" lon="11.142507">
        <ele>35</ele>
      </trkpt>
      <trkpt lat="43.800388" lon="11.142507">
        <ele>35</ele>
      </trkpt>
      <trkpt lat="43.800423" lon="11.142474">
        <ele>35</ele>
      </trkpt>
      <trkpt lat="43.800527" lon="11.142329">
        <ele>35</ele>
      </trkpt>
      <trkpt lat="43.800557" lon="11.142264">
        <ele>35</ele>
      </trkpt>
      <trkpt lat="43.800015" lon="11.142074">
        <ele>35.09</ele>
      </trkpt>
      <trkpt lat="43.799823" lon="11.141966">
        <ele>36</ele>
      </trkpt>
      <trkpt lat="43.7997" lon="11.141865">
        <ele>36</ele>
      </trkpt>
      <trkpt lat="43.799696" lon="11.141816">
        <ele>36</ele>
      </trkpt>
      <trkpt lat="43.799668" lon="11.141716">
        <ele>36</ele>
      </trkpt>
      <trkpt lat="43.799624" lon="11.141635">
        <ele>36</ele>
      </trkpt>
      <trkpt lat="43.799592" lon="11.141599">
        <ele>36</ele>
      </trkpt>
      <trkpt lat="43.799538" lon="11.14156">
        <ele>36</ele>
      </trkpt>
      <trkpt lat="43.799496" lon="11.141544">
        <ele>36</ele>
      </trkpt>
      <trkpt lat="43.799399" lon="11.141544">
        <ele>36</ele>
      </trkpt>
      <trkpt lat="43.799358" lon="11.141566">
        <ele>36</ele>
      </trkpt>
      <trkpt lat="43.799283" lon="11.141639">
        <ele>36</ele>
      </trkpt>
      <trkpt lat="43.799242" lon="11.141719">
        <ele>36</ele>
      </trkpt>
      <trkpt lat="43.799215" lon="11.141818">
        <ele>36</ele>
      </trkpt>
      <trkpt lat="43.799207" lon="11.141896">
        <ele>36</ele>
      </trkpt>
      <trkpt lat="43.799137" lon="11.142005">
        <ele>35.84</ele>
      </trkpt>
      <trkpt lat="43.799044" lon="11.142122">
        <ele>35.09</ele>
      </trkpt>
      <trkpt lat="43.798981" lon="11.1423">
        <ele>35</ele>
      </trkpt>
      <trkpt lat="43.798831" lon="11.142644">
        <ele>35</ele>
      </trkpt>
      <trkpt lat="43.798176" lon="11.144277">
        <ele>35</ele>
      </trkpt>
      <trkpt lat="43.796818" lon="11.147572">
        <ele>35.92</ele>
      </trkpt>
      <trkpt lat="43.796493" lon="11.148328">
        <ele>38</ele>
      </trkpt>
      <trkpt lat="43.79601" lon="11.149345">
        <ele>37</ele>
      </trkpt>
      <trkpt lat="43.79536" lon="11.148761">
        <ele>37</ele>
      </trkpt>
      <trkpt lat="43.795226" lon="11.14864">
        <ele>37</ele>
      </trkpt>
      <trkpt lat="43.795424" lon="11.148255">
        <ele>37</ele>
      </trkpt>
      <trkpt lat="43.795226" lon="11.14864">
        <ele>37</ele>
      </trkpt>
      <trkpt lat="43.79536" lon="11.148761">
        <ele>37</ele>
      </trkpt>
      <trkpt lat="43.79601" lon="11.149345">
        <ele>37</ele>
      </trkpt>
      <trkpt lat="43.79561" lon="11.150189">
        <ele>36</ele>
      </trkpt>
      <trkpt lat="43.795275" lon="11.149895">
        <ele>36.28</ele>
      </trkpt>
      <trkpt lat="43.795024" lon="11.150498">
        <ele>36</ele>
      </trkpt>
      <trkpt lat="43.794832" lon="11.150357">
        <ele>36</ele>
      </trkpt>
      <trkpt lat="43.794574" lon="11.150132">
        <ele>36</ele>
      </trkpt>
      <trkpt lat="43.794353" lon="11.149877">
        <ele>36</ele>
      </trkpt>
      <trkpt lat="43.794176" lon="11.150456">
        <ele>36</ele>
      </trkpt>
      <trkpt lat="43.794092" lon="11.150763">
        <ele>36</ele>
      </trkpt>
      <trkpt lat="43.793758" lon="11.152411">
        <ele>36</ele>
      </trkpt>
      <trkpt lat="43.793697" lon="11.152796">
        <ele>36</ele>
      </trkpt>
      <trkpt lat="43.79369" lon="11.153673">
        <ele>37</ele>
      </trkpt>
      <trkpt lat="43.793113" lon="11.153404">
        <ele>37</ele>
      </trkpt>
      <trkpt lat="43.793113" lon="11.153404">
        <ele>37</ele>
      </trkpt>
      <trkpt lat="43.79369" lon="11.153673">
        <ele>37</ele>
      </trkpt>
      <trkpt lat="43.793735" lon="11.154422">
        <ele>37</ele>
      </trkpt>
      <trkpt lat="43.794005" lon="11.154508">
        <ele>36</ele>
      </trkpt>
      <trkpt lat="43.79398" lon="11.155119">
        <ele>36</ele>
      </trkpt>
      <trkpt lat="43.793931" lon="11.155081">
        <ele>36.01</ele>
      </trkpt>
      <trkpt lat="43.793592" lon="11.155054">
        <ele>37</ele>
      </trkpt>
      <trkpt lat="43.793158" lon="11.154813">
        <ele>37</ele>
      </trkpt>
      <trkpt lat="43.793213" lon="11.154587">
        <ele>37</ele>
      </trkpt>
      <trkpt lat="43.793158" lon="11.154813">
        <ele>37</ele>
      </trkpt>
      <trkpt lat="43.793592" lon="11.155054">
        <ele>37</ele>
      </trkpt>
      <trkpt lat="43.793931" lon="11.155081">
        <ele>36.01</ele>
      </trkpt>
      <trkpt lat="43.79398" lon="11.155119">
        <ele>36</ele>
      </trkpt>
      <trkpt lat="43.794005" lon="11.154508">
        <ele>36</ele>
      </trkpt>
      <trkpt lat="43.793999" lon="11.154236">
        <ele>36</ele>
      </trkpt>
      <trkpt lat="43.793983" lon="11.15395">
        <ele>36</ele>
      </trkpt>
      <trkpt lat="43.793989" lon="11.153834">
        <ele>36</ele>
      </trkpt>
      <trkpt lat="43.794023" lon="11.153682">
        <ele>36</ele>
      </trkpt>
      <trkpt lat="43.794093" lon="11.153497">
        <ele>36</ele>
      </trkpt>
      <trkpt lat="43.794367" lon="11.152861">
        <ele>36</ele>
      </trkpt>
      <trkpt lat="43.794843" lon="11.15182">
        <ele>36</ele>
      </trkpt>
      <trkpt lat="43.795133" lon="11.151211">
        <ele>36</ele>
      </trkpt>
      <trkpt lat="43.795315" lon="11.150863">
        <ele>36</ele>
      </trkpt>
      <trkpt lat="43.795528" lon="11.150343">
        <ele>36</ele>
      </trkpt>
      <trkpt lat="43.79561" lon="11.150189">
        <ele>36</ele>
      </trkpt>
      <trkpt lat="43.796493" lon="11.148328">
        <ele>38</ele>
      </trkpt>
      <trkpt lat="43.797004" lon="11.147122">
        <ele>35</ele>
      </trkpt>
      <trkpt lat="43.798326" lon="11.148293">
        <ele>35</ele>
      </trkpt>
      <trkpt lat="43.798495" lon="11.148456">
        <ele>35</ele>
      </trkpt>
      <trkpt lat="43.798326" lon="11.148293">
        <ele>35</ele>
      </trkpt>
      <trkpt lat="43.797004" lon="11.147122">
        <ele>35</ele>
      </trkpt>
      <trkpt lat="43.796818" lon="11.147572">
        <ele>35.92</ele>
      </trkpt>
      <trkpt lat="43.796596" lon="11.147335">
        <ele>36</ele>
      </trkpt>
      <trkpt lat="43.796517" lon="11.147224">
        <ele>35.6</ele>
      </trkpt>
      <trkpt lat="43.796474" lon="11.14716">
        <ele>35.64</ele>
      </trkpt>
      <trkpt lat="43.796343" lon="11.146904">
        <ele>35</ele>
      </trkpt>
      <trkpt lat="43.796262" lon="11.146777">
        <ele>35</ele>
      </trkpt>
      <trkpt lat="43.796205" lon="11.14671">
        <ele>35</ele>
      </trkpt>
      <trkpt lat="43.795526" lon="11.146108">
        <ele>35</ele>
      </trkpt>
      <trkpt lat="43.795159" lon="11.1458">
        <ele>35</ele>
      </trkpt>
      <trkpt lat="43.795357" lon="11.145283">
        <ele>35</ele>
      </trkpt>
      <trkpt lat="43.79554" lon="11.144712">
        <ele>35.89</ele>
      </trkpt>
      <trkpt lat="43.795629" lon="11.144781">
        <ele>35.88</ele>
      </trkpt>
      <trkpt lat="43.795774" lon="11.144894">
        <ele>35.87</ele>
      </trkpt>
      <trkpt lat="43.796673" lon="11.145619">
        <ele>35</ele>
      </trkpt>
      <trkpt lat="43.796444" lon="11.14603">
        <ele>35</ele>
      </trkpt>
      <trkpt lat="43.796673" lon="11.145619">
        <ele>35</ele>
      </trkpt>
      <trkpt lat="43.79738" lon="11.144159">
        <ele>35</ele>
      </trkpt>
      <trkpt lat="43.797412" lon="11.144142">
        <ele>35</ele>
      </trkpt>
      <trkpt lat="43.797451" lon="11.14415">
        <ele>35</ele>
      </trkpt>
      <trkpt lat="43.797888" lon="11.144549">
        <ele>35</ele>
      </trkpt>
      <trkpt lat="43.797451" lon="11.14415">
        <ele>35</ele>
      </trkpt>
      <trkpt lat="43.797412" lon="11.144142">
        <ele>35</ele>
      </trkpt>
      <trkpt lat="43.79738" lon="11.144159">
        <ele>35</ele>
      </trkpt>
      <trkpt lat="43.796673" lon="11.145619">
        <ele>35</ele>
      </trkpt>
      <trkpt lat="43.795886" lon="11.144981">
        <ele>35.86</ele>
      </trkpt>
      <trkpt lat="43.79554" lon="11.144712">
        <ele>35.89</ele>
      </trkpt>
      <trkpt lat="43.79572" lon="11.144113">
        <ele>36</ele>
      </trkpt>
      <trkpt lat="43.795855" lon="11.143612">
        <ele>36</ele>
      </trkpt>
      <trkpt lat="43.795994" lon="11.143254">
        <ele>36</ele>
      </trkpt>
      <trkpt lat="43.796101" lon="11.143022">
        <ele>36</ele>
      </trkpt>
      <trkpt lat="43.796103" lon="11.142987">
        <ele>36</ele>
      </trkpt>
      <trkpt lat="43.79603" lon="11.142826">
        <ele>36</ele>
      </trkpt>
      <trkpt lat="43.796019" lon="11.142792">
        <ele>36</ele>
      </trkpt>
      <trkpt lat="43.796025" lon="11.14273">
        <ele>36</ele>
      </trkpt>
      <trkpt lat="43.796062" lon="11.142651">
        <ele>36</ele>
      </trkpt>
      <trkpt lat="43.796284" lon="11.142349">
        <ele>36</ele>
      </trkpt>
      <trkpt lat="43.796345" lon="11.142249">
        <ele>36</ele>
      </trkpt>
      <trkpt lat="43.796495" lon="11.14186">
        <ele>36</ele>
      </trkpt>
      <trkpt lat="43.796811" lon="11.141093">
        <ele>35</ele>
      </trkpt>
      <trkpt lat="43.797199" lon="11.140166">
        <ele>36</ele>
      </trkpt>
      <trkpt lat="43.797472" lon="11.139544">
        <ele>36</ele>
      </trkpt>
      <trkpt lat="43.797583" lon="11.139759">
        <ele>36</ele>
      </trkpt>
      <trkpt lat="43.797678" lon="11.139893">
        <ele>36</ele>
      </trkpt>
      <trkpt lat="43.797831" lon="11.140079">
        <ele>36</ele>
      </trkpt>
      <trkpt lat="43.797994" lon="11.140232">
        <ele>36</ele>
      </trkpt>
      <trkpt lat="43.798993" lon="11.14103">
        <ele>36</ele>
      </trkpt>
      <trkpt lat="43.799076" lon="11.14112">
        <ele>36</ele>
      </trkpt>
      <trkpt lat="43.799117" lon="11.14118">
        <ele>36</ele>
      </trkpt>
      <trkpt lat="43.79915" lon="11.14126">
        <ele>36</ele>
      </trkpt>
      <trkpt lat="43.799194" lon="11.141419">
        <ele>36</ele>
      </trkpt>
      <trkpt lat="43.799234" lon="11.141625">
        <ele>36</ele>
      </trkpt>
      <trkpt lat="43.799242" lon="11.141719">
        <ele>36</ele>
      </trkpt>
      <trkpt lat="43.799215" lon="11.141818">
        <ele>36</ele>
      </trkpt>
      <trkpt lat="43.799207" lon="11.141896">
        <ele>36</ele>
      </trkpt>
      <trkpt lat="43.799137" lon="11.142005">
        <ele>35.84</ele>
      </trkpt>
      <trkpt lat="43.799044" lon="11.142122">
        <ele>35.09</ele>
      </trkpt>
      <trkpt lat="43.798981" lon="11.1423">
        <ele>35</ele>
      </trkpt>
      <trkpt lat="43.798831" lon="11.142644">
        <ele>35</ele>
      </trkpt>
      <trkpt lat="43.798176" lon="11.144277">
        <ele>35</ele>
      </trkpt>
      <trkpt lat="43.796818" lon="11.147572">
        <ele>35.92</ele>
      </trkpt>
      <trkpt lat="43.796596" lon="11.147335">
        <ele>36</ele>
      </trkpt>
      <trkpt lat="43.796517" lon="11.147224">
        <ele>35.6</ele>
      </trkpt>
      <trkpt lat="43.796474" lon="11.14716">
        <ele>35.64</ele>
      </trkpt>
      <trkpt lat="43.796343" lon="11.146904">
        <ele>35</ele>
      </trkpt>
      <trkpt lat="43.796262" lon="11.146777">
        <ele>35</ele>
      </trkpt>
      <trkpt lat="43.796205" lon="11.14671">
        <ele>35</ele>
      </trkpt>
      <trkpt lat="43.795526" lon="11.146108">
        <ele>35</ele>
      </trkpt>
      <trkpt lat="43.795159" lon="11.1458">
        <ele>35</ele>
      </trkpt>
      <trkpt lat="43.794887" lon="11.145568">
        <ele>35</ele>
      </trkpt>
      <trkpt lat="43.794687" lon="11.145353">
        <ele>35</ele>
      </trkpt>
      <trkpt lat="43.794887" lon="11.145568">
        <ele>35</ele>
      </trkpt>
      <trkpt lat="43.795159" lon="11.1458">
        <ele>35</ele>
      </trkpt>
      <trkpt lat="43.795357" lon="11.145283">
        <ele>35</ele>
      </trkpt>
      <trkpt lat="43.79554" lon="11.144712">
        <ele>35.89</ele>
      </trkpt>
      <trkpt lat="43.795886" lon="11.144981">
        <ele>35.86</ele>
      </trkpt>
      <trkpt lat="43.796673" lon="11.145619">
        <ele>35</ele>
      </trkpt>
      <trkpt lat="43.79738" lon="11.144159">
        <ele>35</ele>
      </trkpt>
      <trkpt lat="43.797412" lon="11.144142">
        <ele>35</ele>
      </trkpt>
      <trkpt lat="43.797451" lon="11.14415">
        <ele>35</ele>
      </trkpt>
      <trkpt lat="43.798014" lon="11.144664">
        <ele>35</ele>
      </trkpt>
      <trkpt lat="43.797004" lon="11.147122">
        <ele>35</ele>
      </trkpt>
      <trkpt lat="43.796493" lon="11.148328">
        <ele>38</ele>
      </trkpt>
      <trkpt lat="43.79561" lon="11.150189">
        <ele>36</ele>
      </trkpt>
      <trkpt lat="43.795275" lon="11.149895">
        <ele>36.28</ele>
      </trkpt>
      <trkpt lat="43.795024" lon="11.150498">
        <ele>36</ele>
      </trkpt>
      <trkpt lat="43.794832" lon="11.150357">
        <ele>36</ele>
      </trkpt>
      <trkpt lat="43.794574" lon="11.150132">
        <ele>36</ele>
      </trkpt>
      <trkpt lat="43.794353" lon="11.149877">
        <ele>36</ele>
      </trkpt>
      <trkpt lat="43.794176" lon="11.150456">
        <ele>36</ele>
      </trkpt>
      <trkpt lat="43.794092" lon="11.150763">
        <ele>36</ele>
      </trkpt>
      <trkpt lat="43.794067" lon="11.15089">
        <ele>36</ele>
      </trkpt>
      <trkpt lat="43.794237" lon="11.150967">
        <ele>36</ele>
      </trkpt>
      <trkpt lat="43.794256" lon="11.150968">
        <ele>36</ele>
      </trkpt>
      <trkpt lat="43.794272" lon="11.150943">
        <ele>36</ele>
      </trkpt>
      <trkpt lat="43.794435" lon="11.150496">
        <ele>36</ele>
      </trkpt>
      <trkpt lat="43.794458" lon="11.150481">
        <ele>36</ele>
      </trkpt>
      <trkpt lat="43.794522" lon="11.15054">
        <ele>36</ele>
      </trkpt>
      <trkpt lat="43.794458" lon="11.150481">
        <ele>36</ele>
      </trkpt>
      <trkpt lat="43.794435" lon="11.150496">
        <ele>36</ele>
      </trkpt>
      <trkpt lat="43.794272" lon="11.150943">
        <ele>36</ele>
      </trkpt>
      <trkpt lat="43.794256" lon="11.150968">
        <ele>36</ele>
      </trkpt>
      <trkpt lat="43.794237" lon="11.150967">
        <ele>36</ele>
      </trkpt>
      <trkpt lat="43.794067" lon="11.15089">
        <ele>36</ele>
      </trkpt>
      <trkpt lat="43.793758" lon="11.152411">
        <ele>36</ele>
      </trkpt>
      <trkpt lat="43.793697" lon="11.152796">
        <ele>36</ele>
      </trkpt>
      <trkpt lat="43.794114" lon="11.152961">
        <ele>36</ele>
      </trkpt>
      <trkpt lat="43.794132" lon="11.152927">
        <ele>36</ele>
      </trkpt>
      <trkpt lat="43.794285" lon="11.153052">
        <ele>36</ele>
      </trkpt>
      <trkpt lat="43.794843" lon="11.15182">
        <ele>36</ele>
      </trkpt>
      <trkpt lat="43.795133" lon="11.151211">
        <ele>36</ele>
      </trkpt>
      <trkpt lat="43.795315" lon="11.150863">
        <ele>36</ele>
      </trkpt>
      <trkpt lat="43.795528" lon="11.150343">
        <ele>36</ele>
      </trkpt>
      <trkpt lat="43.79561" lon="11.150189">
        <ele>36</ele>
      </trkpt>
      <trkpt lat="43.796493" lon="11.148328">
        <ele>38</ele>
      </trkpt>
      <trkpt lat="43.797004" lon="11.147122">
        <ele>35</ele>
      </trkpt>
      <trkpt lat="43.798176" lon="11.144277">
        <ele>35</ele>
      </trkpt>
      <trkpt lat="43.798831" lon="11.142644">
        <ele>35</ele>
      </trkpt>
      <trkpt lat="43.798981" lon="11.1423">
        <ele>35</ele>
      </trkpt>
      <trkpt lat="43.799063" lon="11.142191">
        <ele>35.2</ele>
      </trkpt>
      <trkpt lat="43.799119" lon="11.142141">
        <ele>35.7</ele>
      </trkpt>
      <trkpt lat="43.79919" lon="11.142117">
        <ele>36</ele>
      </trkpt>
      <trkpt lat="43.79928" lon="11.142131">
        <ele>36</ele>
      </trkpt>
      <trkpt lat="43.799344" lon="11.142187">
        <ele>36</ele>
      </trkpt>
      <trkpt lat="43.79942" lon="11.142212">
        <ele>36</ele>
      </trkpt>
      <trkpt lat="43.799488" lon="11.142216">
        <ele>36</ele>
      </trkpt>
      <trkpt lat="43.799576" lon="11.142174">
        <ele>36</ele>
      </trkpt>
      <trkpt lat="43.799598" lon="11.142152">
        <ele>36</ele>
      </trkpt>
      <trkpt lat="43.799652" lon="11.14207">
        <ele>36</ele>
      </trkpt>
      <trkpt lat="43.799669" lon="11.14203">
        <ele>36</ele>
      </trkpt>
      <trkpt lat="43.799696" lon="11.141918">
        <ele>36</ele>
      </trkpt>
      <trkpt lat="43.799696" lon="11.141816">
        <ele>36</ele>
      </trkpt>
      <trkpt lat="43.799668" lon="11.141716">
        <ele>36</ele>
      </trkpt>
      <trkpt lat="43.799624" lon="11.141635">
        <ele>36</ele>
      </trkpt>
      <trkpt lat="43.799592" lon="11.141599">
        <ele>36</ele>
      </trkpt>
      <trkpt lat="43.799541" lon="11.141454">
        <ele>36.09</ele>
      </trkpt>
      <trkpt lat="43.799519" lon="11.141355">
        <ele>36.67</ele>
      </trkpt>
      <trkpt lat="43.799518" lon="11.141255">
        <ele>37</ele>
      </trkpt>
      <trkpt lat="43.799529" lon="11.141109">
        <ele>37</ele>
      </trkpt>
      <trkpt lat="43.799579" lon="11.140902">
        <ele>37.12</ele>
      </trkpt>
      <trkpt lat="43.799663" lon="11.140665">
        <ele>37.97</ele>
      </trkpt>
      <trkpt lat="43.799931" lon="11.139968">
        <ele>38.94</ele>
      </trkpt>
      <trkpt lat="43.800627" lon="11.138285">
        <ele>39</ele>
      </trkpt>
      <trkpt lat="43.801137" lon="11.137046">
        <ele>37.27</ele>
      </trkpt>
      <trkpt lat="43.801173" lon="11.137076">
        <ele>37.34</ele>
      </trkpt>
      <trkpt lat="43.801193" lon="11.137113">
        <ele>37.4</ele>
      </trkpt>
      <trkpt lat="43.801184" lon="11.137178">
        <ele>37.67</ele>
      </trkpt>
      <trkpt lat="43.800852" lon="11.138081">
        <ele>38.1</ele>
      </trkpt>
      <trkpt lat="43.800798" lon="11.138263">
        <ele>38.78</ele>
      </trkpt>
      <trkpt lat="43.800761" lon="11.13842">
        <ele>39</ele>
      </trkpt>
      <trkpt lat="43.800647" lon="11.138782">
        <ele>39.56</ele>
      </trkpt>
      <trkpt lat="43.800761" lon="11.13842">
        <ele>39</ele>
      </trkpt>
      <trkpt lat="43.800798" lon="11.138263">
        <ele>38.78</ele>
      </trkpt>
      <trkpt lat="43.800852" lon="11.138081">
        <ele>38.1</ele>
      </trkpt>
      <trkpt lat="43.801184" lon="11.137178">
        <ele>37.67</ele>
      </trkpt>
      <trkpt lat="43.801193" lon="11.137113">
        <ele>37.4</ele>
      </trkpt>
      <trkpt lat="43.801173" lon="11.137076">
        <ele>37.34</ele>
      </trkpt>
      <trkpt lat="43.801137" lon="11.137046">
        <ele>37.27</ele>
      </trkpt>
      <trkpt lat="43.802131" lon="11.134629">
        <ele>36</ele>
      </trkpt>
      <trkpt lat="43.800627" lon="11.138285">
        <ele>39</ele>
      </trkpt>
      <trkpt lat="43.799931" lon="11.139968">
        <ele>38.18</ele>
      </trkpt>
      <trkpt lat="43.799663" lon="11.140665">
        <ele>37.39</ele>
      </trkpt>
      <trkpt lat="43.799579" lon="11.140902">
        <ele>37.12</ele>
      </trkpt>
      <trkpt lat="43.799529" lon="11.141109">
        <ele>37</ele>
      </trkpt>
      <trkpt lat="43.799422" lon="11.141488">
        <ele>36</ele>
      </trkpt>
      <trkpt lat="43.799399" lon="11.141544">
        <ele>36</ele>
      </trkpt>
      <trkpt lat="43.799358" lon="11.141566">
        <ele>36</ele>
      </trkpt>
      <trkpt lat="43.799283" lon="11.141639">
        <ele>36</ele>
      </trkpt>
      <trkpt lat="43.799242" lon="11.141719">
        <ele>36</ele>
      </trkpt>
      <trkpt lat="43.799215" lon="11.141818">
        <ele>36</ele>
      </trkpt>
      <trkpt lat="43.799207" lon="11.141896">
        <ele>36</ele>
      </trkpt>
      <trkpt lat="43.799228" lon="11.142017">
        <ele>36</ele>
      </trkpt>
      <trkpt lat="43.799248" lon="11.142072">
        <ele>36</ele>
      </trkpt>
      <trkpt lat="43.79928" lon="11.142131">
        <ele>36</ele>
      </trkpt>
      <trkpt lat="43.799344" lon="11.142187">
        <ele>36</ele>
      </trkpt>
      <trkpt lat="43.79942" lon="11.142212">
        <ele>36</ele>
      </trkpt>
      <trkpt lat="43.799488" lon="11.142216">
        <ele>36</ele>
      </trkpt>
      <trkpt lat="43.799576" lon="11.142174">
        <ele>36</ele>
      </trkpt>
      <trkpt lat="43.799598" lon="11.142152">
        <ele>36</ele>
      </trkpt>
      <trkpt lat="43.799723" lon="11.142079">
        <ele>36</ele>
      </trkpt>
      <trkpt lat="43.799782" lon="11.142062">
        <ele>36</ele>
      </trkpt>
      <trkpt lat="43.799874" lon="11.142056">
        <ele>36</ele>
      </trkpt>
      <trkpt lat="43.800015" lon="11.142074">
        <ele>35.09</ele>
      </trkpt>
      <trkpt lat="43.800783" lon="11.14234">
        <ele>34.9</ele>
      </trkpt>
      <trkpt lat="43.800891" lon="11.142366">
        <ele>34.03</ele>
      </trkpt>
      <trkpt lat="43.801053" lon="11.14239">
        <ele>34.28</ele>
      </trkpt>
      <trkpt lat="43.801234" lon="11.142391">
        <ele>35</ele>
      </trkpt>
      <trkpt lat="43.801368" lon="11.142366">
        <ele>35.54</ele>
      </trkpt>
      <trkpt lat="43.801477" lon="11.142346">
        <ele>35.97</ele>
      </trkpt>
      <trkpt lat="43.801585" lon="11.142309">
        <ele>36.07</ele>
      </trkpt>
      <trkpt lat="43.801853" lon="11.142134">
        <ele>37.1</ele>
      </trkpt>
      <trkpt lat="43.802098" lon="11.141896">
        <ele>38.1</ele>
      </trkpt>
      <trkpt lat="43.802636" lon="11.14129">
        <ele>39</ele>
      </trkpt>
      <trkpt lat="43.802872" lon="11.141086">
        <ele>38.06</ele>
      </trkpt>
      <trkpt lat="43.80298" lon="11.141003">
        <ele>38</ele>
      </trkpt>
      <trkpt lat="43.803206" lon="11.140888">
        <ele>37.24</ele>
      </trkpt>
      <trkpt lat="43.803428" lon="11.140834">
        <ele>37</ele>
      </trkpt>
      <trkpt lat="43.803668" lon="11.140833">
        <ele>36.25</ele>
      </trkpt>
      <trkpt lat="43.803935" lon="11.140886">
        <ele>36</ele>
      </trkpt>
      <trkpt lat="43.804097" lon="11.140941">
        <ele>36</ele>
      </trkpt>
      <trkpt lat="43.804291" lon="11.141055">
        <ele>35</ele>
      </trkpt>
      <trkpt lat="43.804377" lon="11.141134">
        <ele>35</ele>
      </trkpt>
      <trkpt lat="43.80445" lon="11.141223">
        <ele>35</ele>
      </trkpt>
      <trkpt lat="43.804544" lon="11.141434">
        <ele>35</ele>
      </trkpt>
      <trkpt lat="43.804598" lon="11.141533">
        <ele>35</ele>
      </trkpt>
      <trkpt lat="43.804671" lon="11.141606">
        <ele>35</ele>
      </trkpt>
      <trkpt lat="43.804757" lon="11.141645">
        <ele>35</ele>
      </trkpt>
      <trkpt lat="43.804846" lon="11.141648">
        <ele>35</ele>
      </trkpt>
      <trkpt lat="43.804933" lon="11.141614">
        <ele>35</ele>
      </trkpt>
      <trkpt lat="43.805085" lon="11.141517">
        <ele>35</ele>
      </trkpt>
      <trkpt lat="43.805194" lon="11.141483">
        <ele>35</ele>
      </trkpt>
      <trkpt lat="43.80526" lon="11.141483">
        <ele>35</ele>
      </trkpt>
      <trkpt lat="43.805459" lon="11.141516">
        <ele>35</ele>
      </trkpt>
      <trkpt lat="43.805359" lon="11.141443">
        <ele>35</ele>
      </trkpt>
      <trkpt lat="43.805257" lon="11.141369">
        <ele>35</ele>
      </trkpt>
      <trkpt lat="43.805172" lon="11.141257">
        <ele>35</ele>
      </trkpt>
      <trkpt lat="43.805049" lon="11.140985">
        <ele>35</ele>
      </trkpt>
      <trkpt lat="43.805003" lon="11.140917">
        <ele>35</ele>
      </trkpt>
      <trkpt lat="43.804936" lon="11.140857">
        <ele>35</ele>
      </trkpt>
      <trkpt lat="43.80486" lon="11.140824">
        <ele>35</ele>
      </trkpt>
      <trkpt lat="43.80478" lon="11.14082">
        <ele>35</ele>
      </trkpt>
      <trkpt lat="43.804702" lon="11.140845">
        <ele>35</ele>
      </trkpt>
      <trkpt lat="43.804636" lon="11.140893">
        <ele>35</ele>
      </trkpt>
      <trkpt lat="43.804572" lon="11.140976">
        <ele>35</ele>
      </trkpt>
      <trkpt lat="43.804528" lon="11.141081">
        <ele>35</ele>
      </trkpt>
      <trkpt lat="43.804508" lon="11.141199">
        <ele>35</ele>
      </trkpt>
      <trkpt lat="43.804514" lon="11.14132">
        <ele>35</ele>
      </trkpt>
      <trkpt lat="43.804544" lon="11.141434">
        <ele>35</ele>
      </trkpt>
      <trkpt lat="43.804598" lon="11.141533">
        <ele>35</ele>
      </trkpt>
      <trkpt lat="43.804671" lon="11.141606">
        <ele>35</ele>
      </trkpt>
      <trkpt lat="43.804757" lon="11.141645">
        <ele>35</ele>
      </trkpt>
      <trkpt lat="43.804846" lon="11.141648">
        <ele>35</ele>
      </trkpt>
      <trkpt lat="43.804933" lon="11.141614">
        <ele>35</ele>
      </trkpt>
      <trkpt lat="43.805085" lon="11.141517">
        <ele>35</ele>
      </trkpt>
      <trkpt lat="43.805194" lon="11.141483">
        <ele>35</ele>
      </trkpt>
      <trkpt lat="43.80526" lon="11.141483">
        <ele>35</ele>
      </trkpt>
      <trkpt lat="43.805459" lon="11.141516">
        <ele>35</ele>
      </trkpt>
      <trkpt lat="43.807139" lon="11.142205">
        <ele>35</ele>
      </trkpt>
      <trkpt lat="43.808253" lon="11.142683">
        <ele>35</ele>
      </trkpt>
      <trkpt lat="43.808284" lon="11.142696">
        <ele>35</ele>
      </trkpt>
      <trkpt lat="43.808488" lon="11.142851">
        <ele>35</ele>
      </trkpt>
      <trkpt lat="43.808583" lon="11.142941">
        <ele>35</ele>
      </trkpt>
      <trkpt lat="43.808629" lon="11.143038">
        <ele>35</ele>
      </trkpt>
      <trkpt lat="43.808656" lon="11.143161">
        <ele>35</ele>
      </trkpt>
      <trkpt lat="43.808692" lon="11.143239">
        <ele>35</ele>
      </trkpt>
      <trkpt lat="43.80874" lon="11.143305">
        <ele>35</ele>
      </trkpt>
      <trkpt lat="43.808797" lon="11.143354">
        <ele>35</ele>
      </trkpt>
      <trkpt lat="43.80886" lon="11.143386">
        <ele>35</ele>
      </trkpt>
      <trkpt lat="43.808927" lon="11.143399">
        <ele>35</ele>
      </trkpt>
      <trkpt lat="43.808994" lon="11.143391">
        <ele>35</ele>
      </trkpt>
      <trkpt lat="43.809058" lon="11.143363">
        <ele>35</ele>
      </trkpt>
      <trkpt lat="43.809117" lon="11.143317">
        <ele>35</ele>
      </trkpt>
      <trkpt lat="43.809167" lon="11.143255">
        <ele>35</ele>
      </trkpt>
      <trkpt lat="43.809206" lon="11.143179">
        <ele>35</ele>
      </trkpt>
      <trkpt lat="43.809232" lon="11.143094">
        <ele>35</ele>
      </trkpt>
      <trkpt lat="43.809245" lon="11.143002">
        <ele>35</ele>
      </trkpt>
      <trkpt lat="43.809243" lon="11.142909">
        <ele>35</ele>
      </trkpt>
      <trkpt lat="43.809227" lon="11.142818">
        <ele>35</ele>
      </trkpt>
      <trkpt lat="43.809197" lon="11.142735">
        <ele>35</ele>
      </trkpt>
      <trkpt lat="43.809218" lon="11.142476">
        <ele>35</ele>
      </trkpt>
      <trkpt lat="43.809246" lon="11.142362">
        <ele>35</ele>
      </trkpt>
      <trkpt lat="43.809317" lon="11.142165">
        <ele>35</ele>
      </trkpt>
      <trkpt lat="43.809838" lon="11.141075">
        <ele>34</ele>
      </trkpt>
      <trkpt lat="43.810132" lon="11.140425">
        <ele>34.46</ele>
      </trkpt>
      <trkpt lat="43.810255" lon="11.140275">
        <ele>35</ele>
      </trkpt>
      <trkpt lat="43.810577" lon="11.139997">
        <ele>35</ele>
      </trkpt>
      <trkpt lat="43.810679" lon="11.139948">
        <ele>35</ele>
      </trkpt>
      <trkpt lat="43.810712" lon="11.139919">
        <ele>35.11</ele>
      </trkpt>
      <trkpt lat="43.810769" lon="11.139844">
        <ele>35.75</ele>
      </trkpt>
      <trkpt lat="43.810792" lon="11.139799">
        <ele>35.92</ele>
      </trkpt>
      <trkpt lat="43.81081" lon="11.139751">
        <ele>36</ele>
      </trkpt>
      <trkpt lat="43.810833" lon="11.139648">
        <ele>36</ele>
      </trkpt>
      <trkpt lat="43.810837" lon="11.139539">
        <ele>36</ele>
      </trkpt>
      <trkpt lat="43.810827" lon="11.139463">
        <ele>36</ele>
      </trkpt>
      <trkpt lat="43.810797" lon="11.139363">
        <ele>36</ele>
      </trkpt>
      <trkpt lat="43.810749" lon="11.139276">
        <ele>36</ele>
      </trkpt>
      <trkpt lat="43.81072" lon="11.13924">
        <ele>36</ele>
      </trkpt>
      <trkpt lat="43.810652" lon="11.139184">
        <ele>36</ele>
      </trkpt>
      <trkpt lat="43.810615" lon="11.139165">
        <ele>36</ele>
      </trkpt>
      <trkpt lat="43.810538" lon="11.139149">
        <ele>36</ele>
      </trkpt>
      <trkpt lat="43.810498" lon="11.139151">
        <ele>36</ele>
      </trkpt>
      <trkpt lat="43.810447" lon="11.139165">
        <ele>36</ele>
      </trkpt>
      <trkpt lat="43.810355" lon="11.139224">
        <ele>36</ele>
      </trkpt>
      <trkpt lat="43.810282" lon="11.139322">
        <ele>36</ele>
      </trkpt>
      <trkpt lat="43.810236" lon="11.139446">
        <ele>35.82</ele>
      </trkpt>
      <trkpt lat="43.810222" lon="11.139585">
        <ele>35.14</ele>
      </trkpt>
      <trkpt lat="43.810238" lon="11.139713">
        <ele>35.06</ele>
      </trkpt>
      <trkpt lat="43.810181" lon="11.140215">
        <ele>35</ele>
      </trkpt>
      <trkpt lat="43.81014" lon="11.140389">
        <ele>34.55</ele>
      </trkpt>
      <trkpt lat="43.810132" lon="11.140425">
        <ele>34.46</ele>
      </trkpt>
      <trkpt lat="43.810255" lon="11.140275">
        <ele>35</ele>
      </trkpt>
      <trkpt lat="43.810577" lon="11.139997">
        <ele>35</ele>
      </trkpt>
      <trkpt lat="43.810607" lon="11.139988">
        <ele>35</ele>
      </trkpt>
      <trkpt lat="43.810773" lon="11.140002">
        <ele>35.31</ele>
      </trkpt>
      <trkpt lat="43.810907" lon="11.140031">
        <ele>35.79</ele>
      </trkpt>
      <trkpt lat="43.811007" lon="11.140079">
        <ele>36</ele>
      </trkpt>
      <trkpt lat="43.811291" lon="11.140287">
        <ele>36</ele>
      </trkpt>
      <trkpt lat="43.811437" lon="11.140456">
        <ele>36</ele>
      </trkpt>
      <trkpt lat="43.811681" lon="11.140671">
        <ele>36</ele>
      </trkpt>
      <trkpt lat="43.813352" lon="11.14218">
        <ele>36</ele>
      </trkpt>
      <trkpt lat="43.814101" lon="11.14285">
        <ele>36</ele>
      </trkpt>
      <trkpt lat="43.814197" lon="11.142949">
        <ele>36</ele>
      </trkpt>
      <trkpt lat="43.814379" lon="11.143114">
        <ele>36</ele>
      </trkpt>
      <trkpt lat="43.814524" lon="11.143228">
        <ele>36</ele>
      </trkpt>
      <trkpt lat="43.814741" lon="11.143254">
        <ele>36</ele>
      </trkpt>
      <trkpt lat="43.814772" lon="11.143287">
        <ele>36</ele>
      </trkpt>
      <trkpt lat="43.814822" lon="11.143317">
        <ele>36</ele>
      </trkpt>
      <trkpt lat="43.814879" lon="11.14332">
        <ele>36</ele>
      </trkpt>
      <trkpt lat="43.814913" lon="11.14331">
        <ele>36</ele>
      </trkpt>
      <trkpt lat="43.814963" lon="11.143276">
        <ele>36</ele>
      </trkpt>
      <trkpt lat="43.815015" lon="11.143187">
        <ele>36</ele>
      </trkpt>
      <trkpt lat="43.815026" lon="11.143142">
        <ele>36</ele>
      </trkpt>
      <trkpt lat="43.815028" lon="11.143078">
        <ele>36</ele>
      </trkpt>
      <trkpt lat="43.81502" lon="11.142997">
        <ele>36</ele>
      </trkpt>
      <trkpt lat="43.814977" lon="11.142912">
        <ele>36</ele>
      </trkpt>
      <trkpt lat="43.814969" lon="11.142788">
        <ele>36</ele>
      </trkpt>
      <trkpt lat="43.814988" lon="11.142677">
        <ele>36</ele>
      </trkpt>
      <trkpt lat="43.815049" lon="11.142465">
        <ele>36</ele>
      </trkpt>
      <trkpt lat="43.815045" lon="11.142396">
        <ele>36</ele>
      </trkpt>
      <trkpt lat="43.815078" lon="11.142251">
        <ele>36</ele>
      </trkpt>
      <trkpt lat="43.8151" lon="11.142102">
        <ele>36</ele>
      </trkpt>
      <trkpt lat="43.8152" lon="11.140944">
        <ele>36</ele>
      </trkpt>
      <trkpt lat="43.815286" lon="11.140077">
        <ele>36</ele>
      </trkpt>
      <trkpt lat="43.815348" lon="11.139714">
        <ele>36</ele>
      </trkpt>
      <trkpt lat="43.815484" lon="11.139164">
        <ele>36</ele>
      </trkpt>
      <trkpt lat="43.815521" lon="11.139181">
        <ele>36</ele>
      </trkpt>
      <trkpt lat="43.81762" lon="11.140243">
        <ele>36</ele>
      </trkpt>
      <trkpt lat="43.817818" lon="11.140361">
        <ele>36</ele>
      </trkpt>
      <trkpt lat="43.818283" lon="11.14069">
        <ele>36.58</ele>
      </trkpt>
      <trkpt lat="43.818617" lon="11.139725">
        <ele>37</ele>
      </trkpt>
      <trkpt lat="43.817375" lon="11.139055">
        <ele>36</ele>
      </trkpt>
      <trkpt lat="43.816858" lon="11.13877">
        <ele>36</ele>
      </trkpt>
      <trkpt lat="43.816749" lon="11.138699">
        <ele>36</ele>
      </trkpt>
      <trkpt lat="43.815728" lon="11.138265">
        <ele>36</ele>
      </trkpt>
      <trkpt lat="43.816339" lon="11.136126">
        <ele>36.47</ele>
      </trkpt>
      <trkpt lat="43.816697" lon="11.134966">
        <ele>36.98</ele>
      </trkpt>
      <trkpt lat="43.816893" lon="11.134278">
        <ele>37</ele>
      </trkpt>
      <trkpt lat="43.818102" lon="11.13494">
        <ele>37</ele>
      </trkpt>
      <trkpt lat="43.817975" lon="11.135399">
        <ele>37</ele>
      </trkpt>
      <trkpt lat="43.817352" lon="11.135053">
        <ele>37</ele>
      </trkpt>
      <trkpt lat="43.817146" lon="11.134969">
        <ele>37</ele>
      </trkpt>
      <trkpt lat="43.817067" lon="11.135193">
        <ele>36.92</ele>
      </trkpt>
      <trkpt lat="43.816215" lon="11.137633">
        <ele>36</ele>
      </trkpt>
      <trkpt lat="43.816137" lon="11.137865">
        <ele>36</ele>
      </trkpt>
      <trkpt lat="43.816215" lon="11.137633">
        <ele>36</ele>
      </trkpt>
      <trkpt lat="43.817066" lon="11.138155">
        <ele>36</ele>
      </trkpt>
      <trkpt lat="43.817054" lon="11.138194">
        <ele>36</ele>
      </trkpt>
      <trkpt lat="43.816956" lon="11.138517">
        <ele>36</ele>
      </trkpt>
      <trkpt lat="43.816858" lon="11.13877">
        <ele>36</ele>
      </trkpt>
      <trkpt lat="43.818162" lon="11.139474">
        <ele>37</ele>
      </trkpt>
      <trkpt lat="43.818431" lon="11.138431">
        <ele>36.52</ele>
      </trkpt>
      <trkpt lat="43.818528" lon="11.13809">
        <ele>36.02</ele>
      </trkpt>
      <trkpt lat="43.818674" lon="11.137629">
        <ele>36</ele>
      </trkpt>
      <trkpt lat="43.81882" lon="11.137229">
        <ele>36.28</ele>
      </trkpt>
      <trkpt lat="43.819233" lon="11.13617">
        <ele>37</ele>
      </trkpt>
      <trkpt lat="43.818452" lon="11.13568">
        <ele>37</ele>
      </trkpt>
      <trkpt lat="43.818423" lon="11.13577">
        <ele>36.96</ele>
      </trkpt>
      <trkpt lat="43.817787" lon="11.137786">
        <ele>36</ele>
      </trkpt>
      <trkpt lat="43.817403" lon="11.138969">
        <ele>36</ele>
      </trkpt>
      <trkpt lat="43.817375" lon="11.139055">
        <ele>36</ele>
      </trkpt>
      <trkpt lat="43.818162" lon="11.139474">
        <ele>37</ele>
      </trkpt>
      <trkpt lat="43.818431" lon="11.138431">
        <ele>36.52</ele>
      </trkpt>
      <trkpt lat="43.818528" lon="11.13809">
        <ele>36.02</ele>
      </trkpt>
      <trkpt lat="43.818674" lon="11.137629">
        <ele>36</ele>
      </trkpt>
      <trkpt lat="43.81882" lon="11.137229">
        <ele>36.28</ele>
      </trkpt>
      <trkpt lat="43.819233" lon="11.13617">
        <ele>37</ele>
      </trkpt>
      <trkpt lat="43.818452" lon="11.13568">
        <ele>37</ele>
      </trkpt>
      <trkpt lat="43.817975" lon="11.135399">
        <ele>37</ele>
      </trkpt>
      <trkpt lat="43.817842" lon="11.135818">
        <ele>37</ele>
      </trkpt>
      <trkpt lat="43.817616" lon="11.136403">
        <ele>37</ele>
      </trkpt>
      <trkpt lat="43.817403" lon="11.137115">
        <ele>36</ele>
      </trkpt>
      <trkpt lat="43.817119" lon="11.13799">
        <ele>36</ele>
      </trkpt>
      <trkpt lat="43.816956" lon="11.138517">
        <ele>36</ele>
      </trkpt>
      <trkpt lat="43.816817" lon="11.138889">
        <ele>36</ele>
      </trkpt>
      <trkpt lat="43.816603" lon="11.139629">
        <ele>36</ele>
      </trkpt>
      <trkpt lat="43.816577" lon="11.13972">
        <ele>36</ele>
      </trkpt>
      <trkpt lat="43.81762" lon="11.140243">
        <ele>36</ele>
      </trkpt>
      <trkpt lat="43.817818" lon="11.140361">
        <ele>36</ele>
      </trkpt>
      <trkpt lat="43.818283" lon="11.14069">
        <ele>36.58</ele>
      </trkpt>
      <trkpt lat="43.818617" lon="11.139725">
        <ele>37</ele>
      </trkpt>
      <trkpt lat="43.818162" lon="11.139474">
        <ele>37</ele>
      </trkpt>
      <trkpt lat="43.818431" lon="11.138431">
        <ele>36.52</ele>
      </trkpt>
      <trkpt lat="43.818528" lon="11.13809">
        <ele>36.02</ele>
      </trkpt>
      <trkpt lat="43.818674" lon="11.137629">
        <ele>36</ele>
      </trkpt>
      <trkpt lat="43.81882" lon="11.137229">
        <ele>36.28</ele>
      </trkpt>
      <trkpt lat="43.819233" lon="11.13617">
        <ele>37</ele>
      </trkpt>
      <trkpt lat="43.819499" lon="11.136341">
        <ele>37</ele>
      </trkpt>
      <trkpt lat="43.819898" lon="11.136618">
        <ele>37</ele>
      </trkpt>
      <trkpt lat="43.820408" lon="11.137008">
        <ele>37</ele>
      </trkpt>
      <trkpt lat="43.820111" lon="11.137774">
        <ele>37</ele>
      </trkpt>
      <trkpt lat="43.820107" lon="11.137826">
        <ele>37</ele>
      </trkpt>
      <trkpt lat="43.820114" lon="11.137868">
        <ele>37</ele>
      </trkpt>
      <trkpt lat="43.820135" lon="11.137921">
        <ele>37</ele>
      </trkpt>
      <trkpt lat="43.820418" lon="11.138239">
        <ele>37</ele>
      </trkpt>
      <trkpt lat="43.820426" lon="11.138279">
        <ele>37</ele>
      </trkpt>
      <trkpt lat="43.82043" lon="11.138295">
        <ele>37</ele>
      </trkpt>
      <trkpt lat="43.820413" lon="11.138343">
        <ele>37</ele>
      </trkpt>
      <trkpt lat="43.820293" lon="11.138572">
        <ele>37</ele>
      </trkpt>
      <trkpt lat="43.820155" lon="11.138923">
        <ele>37</ele>
      </trkpt>
      <trkpt lat="43.820087" lon="11.139157">
        <ele>37</ele>
      </trkpt>
      <trkpt lat="43.819922" lon="11.139801">
        <ele>37</ele>
      </trkpt>
      <trkpt lat="43.819732" lon="11.140405">
        <ele>37</ele>
      </trkpt>
      <trkpt lat="43.8195" lon="11.140954">
        <ele>37</ele>
      </trkpt>
      <trkpt lat="43.819435" lon="11.141096">
        <ele>37</ele>
      </trkpt>
      <trkpt lat="43.819272" lon="11.141411">
        <ele>37</ele>
      </trkpt>
      <trkpt lat="43.81914" lon="11.141816">
        <ele>37</ele>
      </trkpt>
      <trkpt lat="43.819049" lon="11.142143">
        <ele>37</ele>
      </trkpt>
      <trkpt lat="43.818966" lon="11.14238">
        <ele>37</ele>
      </trkpt>
      <trkpt lat="43.818821" lon="11.142589">
        <ele>37</ele>
      </trkpt>
      <trkpt lat="43.818541" lon="11.143068">
        <ele>36</ele>
      </trkpt>
      <trkpt lat="43.818475" lon="11.14321">
        <ele>36</ele>
      </trkpt>
      <trkpt lat="43.818425" lon="11.14335">
        <ele>36</ele>
      </trkpt>
      <trkpt lat="43.818308848373164" lon="11.143764274135723">
        <ele>36</ele>
      </trkpt>
      <trkpt lat="43.818305" lon="11.143778">
        <ele>36</ele>
      </trkpt>
      <trkpt lat="43.818111" lon="11.144342">
        <ele>36</ele>
      </trkpt>
      <trkpt lat="43.818074" lon="11.144419">
        <ele>36</ele>
      </trkpt>
      <trkpt lat="43.818022" lon="11.14456">
        <ele>36</ele>
      </trkpt>
      <trkpt lat="43.818046" lon="11.144641">
        <ele>36.08</ele>
      </trkpt>
      <trkpt lat="43.818069" lon="11.144669">
        <ele>36.22</ele>
      </trkpt>
      <trkpt lat="43.818102" lon="11.144672">
        <ele>36.39</ele>
      </trkpt>
      <trkpt lat="43.818161" lon="11.144651">
        <ele>36.55</ele>
      </trkpt>
      <trkpt lat="43.819078" lon="11.143384">
        <ele>37</ele>
      </trkpt>
      <trkpt lat="43.819478" lon="11.14286">
        <ele>37</ele>
      </trkpt>
      <trkpt lat="43.819794" lon="11.142479">
        <ele>37</ele>
      </trkpt>
      <trkpt lat="43.819916" lon="11.142311">
        <ele>37</ele>
      </trkpt>
      <trkpt lat="43.820114" lon="11.141971">
        <ele>37</ele>
      </trkpt>
      <trkpt lat="43.820254" lon="11.141607">
        <ele>37</ele>
      </trkpt>
      <trkpt lat="43.82033" lon="11.141429">
        <ele>37</ele>
      </trkpt>
      <trkpt lat="43.820482" lon="11.140998">
        <ele>37</ele>
      </trkpt>
      <trkpt lat="43.819758" lon="11.140424">
        <ele>37</ele>
      </trkpt>
      <trkpt lat="43.819732" lon="11.140405">
        <ele>37</ele>
      </trkpt>
      <trkpt lat="43.8195" lon="11.140954">
        <ele>37</ele>
      </trkpt>
      <trkpt lat="43.819435" lon="11.141096">
        <ele>37</ele>
      </trkpt>
      <trkpt lat="43.819272" lon="11.141411">
        <ele>37</ele>
      </trkpt>
      <trkpt lat="43.818739" lon="11.140994">
        <ele>37</ele>
      </trkpt>
      <trkpt lat="43.818743" lon="11.140982">
        <ele>37</ele>
      </trkpt>
      <trkpt lat="43.819079" lon="11.140013">
        <ele>37</ele>
      </trkpt>
      <trkpt lat="43.819087" lon="11.139992">
        <ele>37</ele>
      </trkpt>
      <trkpt lat="43.819256" lon="11.140087">
        <ele>37</ele>
      </trkpt>
      <trkpt lat="43.819372" lon="11.13968">
        <ele>37</ele>
      </trkpt>
      <trkpt lat="43.818984" lon="11.139462">
        <ele>37</ele>
      </trkpt>
      <trkpt lat="43.81855" lon="11.13921">
        <ele>37</ele>
      </trkpt>
      <trkpt lat="43.81848" lon="11.139441">
        <ele>37</ele>
      </trkpt>
      <trkpt lat="43.818488" lon="11.139446">
        <ele>37</ele>
      </trkpt>
      <trkpt lat="43.819215" lon="11.139864">
        <ele>37</ele>
      </trkpt>
      <trkpt lat="43.819304" lon="11.139914">
        <ele>37</ele>
      </trkpt>
      <trkpt lat="43.819372" lon="11.13968">
        <ele>37</ele>
      </trkpt>
      <trkpt lat="43.81855" lon="11.13921">
        <ele>37</ele>
      </trkpt>
      <trkpt lat="43.818427" lon="11.139617">
        <ele>37</ele>
      </trkpt>
      <trkpt lat="43.819256" lon="11.140087">
        <ele>37</ele>
      </trkpt>
      <trkpt lat="43.819732" lon="11.140405">
        <ele>37</ele>
      </trkpt>
      <trkpt lat="43.8195" lon="11.140954">
        <ele>37</ele>
      </trkpt>
      <trkpt lat="43.819435" lon="11.141096">
        <ele>37</ele>
      </trkpt>
      <trkpt lat="43.819272" lon="11.141411">
        <ele>37</ele>
      </trkpt>
      <trkpt lat="43.81914" lon="11.141816">
        <ele>37</ele>
      </trkpt>
      <trkpt lat="43.819049" lon="11.142143">
        <ele>37</ele>
      </trkpt>
      <trkpt lat="43.818988" lon="11.142331">
        <ele>37</ele>
      </trkpt>
      <trkpt lat="43.818966" lon="11.14238">
        <ele>37</ele>
      </trkpt>
      <trkpt lat="43.818821" lon="11.142589">
        <ele>37</ele>
      </trkpt>
      <trkpt lat="43.818114" lon="11.142117">
        <ele>36</ele>
      </trkpt>
      <trkpt lat="43.817376" lon="11.141632">
        <ele>36</ele>
      </trkpt>
      <trkpt lat="43.817818" lon="11.140361">
        <ele>36</ele>
      </trkpt>
      <trkpt lat="43.818283" lon="11.14069">
        <ele>36.58</ele>
      </trkpt>
      <trkpt lat="43.818617" lon="11.139725">
        <ele>37</ele>
      </trkpt>
      <trkpt lat="43.819256" lon="11.140087">
        <ele>37</ele>
      </trkpt>
      <trkpt lat="43.819732" lon="11.140405">
        <ele>37</ele>
      </trkpt>
      <trkpt lat="43.8195" lon="11.140954">
        <ele>37</ele>
      </trkpt>
      <trkpt lat="43.819435" lon="11.141096">
        <ele>37</ele>
      </trkpt>
      <trkpt lat="43.819272" lon="11.141411">
        <ele>37</ele>
      </trkpt>
      <trkpt lat="43.818739" lon="11.140994">
        <ele>37</ele>
      </trkpt>
      <trkpt lat="43.819087" lon="11.139992">
        <ele>37</ele>
      </trkpt>
      <trkpt lat="43.819256" lon="11.140087">
        <ele>37</ele>
      </trkpt>
      <trkpt lat="43.819732" lon="11.140405">
        <ele>37</ele>
      </trkpt>
      <trkpt lat="43.8195" lon="11.140954">
        <ele>37</ele>
      </trkpt>
      <trkpt lat="43.819435" lon="11.141096">
        <ele>37</ele>
      </trkpt>
      <trkpt lat="43.819272" lon="11.141411">
        <ele>37</ele>
      </trkpt>
      <trkpt lat="43.81914" lon="11.141816">
        <ele>37</ele>
      </trkpt>
      <trkpt lat="43.819049" lon="11.142143">
        <ele>37</ele>
      </trkpt>
      <trkpt lat="43.818988" lon="11.142331">
        <ele>37</ele>
      </trkpt>
      <trkpt lat="43.818966" lon="11.14238">
        <ele>37</ele>
      </trkpt>
      <trkpt lat="43.818821" lon="11.142589">
        <ele>37</ele>
      </trkpt>
      <trkpt lat="43.818105" lon="11.142111">
        <ele>36</ele>
      </trkpt>
      <trkpt lat="43.817376" lon="11.141632">
        <ele>36</ele>
      </trkpt>
      <trkpt lat="43.817818" lon="11.140361">
        <ele>36</ele>
      </trkpt>
      <trkpt lat="43.818283" lon="11.14069">
        <ele>36.58</ele>
      </trkpt>
      <trkpt lat="43.818617" lon="11.139725">
        <ele>37</ele>
      </trkpt>
      <trkpt lat="43.819256" lon="11.140087">
        <ele>37</ele>
      </trkpt>
      <trkpt lat="43.819732" lon="11.140405">
        <ele>37</ele>
      </trkpt>
      <trkpt lat="43.8195" lon="11.140954">
        <ele>37</ele>
      </trkpt>
      <trkpt lat="43.819435" lon="11.141096">
        <ele>37</ele>
      </trkpt>
      <trkpt lat="43.819272" lon="11.141411">
        <ele>37</ele>
      </trkpt>
      <trkpt lat="43.818739" lon="11.140994">
        <ele>37</ele>
      </trkpt>
      <trkpt lat="43.818739" lon="11.140994">
        <ele>37</ele>
      </trkpt>
      <trkpt lat="43.819087" lon="11.139992">
        <ele>37</ele>
      </trkpt>
      <trkpt lat="43.819256" lon="11.140087">
        <ele>37</ele>
      </trkpt>
      <trkpt lat="43.819732" lon="11.140405">
        <ele>37</ele>
      </trkpt>
      <trkpt lat="43.8195" lon="11.140954">
        <ele>37</ele>
      </trkpt>
      <trkpt lat="43.819435" lon="11.141096">
        <ele>37</ele>
      </trkpt>
      <trkpt lat="43.819272" lon="11.141411">
        <ele>37</ele>
      </trkpt>
      <trkpt lat="43.81914" lon="11.141816">
        <ele>37</ele>
      </trkpt>
      <trkpt lat="43.819049" lon="11.142143">
        <ele>37</ele>
      </trkpt>
      <trkpt lat="43.818988" lon="11.142331">
        <ele>37</ele>
      </trkpt>
      <trkpt lat="43.818966" lon="11.14238">
        <ele>37</ele>
      </trkpt>
      <trkpt lat="43.818821" lon="11.142589">
        <ele>37</ele>
      </trkpt>
      <trkpt lat="43.818087" lon="11.1421">
        <ele>36</ele>
      </trkpt>
      <trkpt lat="43.816249" lon="11.140894">
        <ele>36</ele>
      </trkpt>
      <trkpt lat="43.816106" lon="11.141282">
        <ele>36</ele>
      </trkpt>
      <trkpt lat="43.815948" lon="11.141645">
        <ele>36</ele>
      </trkpt>
      <trkpt lat="43.815826" lon="11.141876">
        <ele>36</ele>
      </trkpt>
      <trkpt lat="43.815541" lon="11.142317">
        <ele>36</ele>
      </trkpt>
      <trkpt lat="43.81607" lon="11.14261">
        <ele>36</ele>
      </trkpt>
      <trkpt lat="43.816875" lon="11.143084">
        <ele>36</ele>
      </trkpt>
      <trkpt lat="43.816962" lon="11.142857">
        <ele>36</ele>
      </trkpt>
      <trkpt lat="43.817682" lon="11.143375">
        <ele>36</ele>
      </trkpt>
      <trkpt lat="43.818111" lon="11.142115">
        <ele>36</ele>
      </trkpt>
      <trkpt lat="43.818102" lon="11.142109">
        <ele>36</ele>
      </trkpt>
      <trkpt lat="43.816249" lon="11.140894">
        <ele>36</ele>
      </trkpt>
      <trkpt lat="43.816106" lon="11.141282">
        <ele>36</ele>
      </trkpt>
      <trkpt lat="43.815948" lon="11.141645">
        <ele>36</ele>
      </trkpt>
      <trkpt lat="43.815826" lon="11.141876">
        <ele>36</ele>
      </trkpt>
      <trkpt lat="43.815541" lon="11.142317">
        <ele>36</ele>
      </trkpt>
      <trkpt lat="43.81607" lon="11.14261">
        <ele>36</ele>
      </trkpt>
      <trkpt lat="43.816875" lon="11.143084">
        <ele>36</ele>
      </trkpt>
      <trkpt lat="43.816962" lon="11.142857">
        <ele>36</ele>
      </trkpt>
      <trkpt lat="43.817682" lon="11.143375">
        <ele>36</ele>
      </trkpt>
      <trkpt lat="43.817425" lon="11.144162">
        <ele>36</ele>
      </trkpt>
      <trkpt lat="43.817682" lon="11.143375">
        <ele>36</ele>
      </trkpt>
      <trkpt lat="43.817773" lon="11.143434">
        <ele>36</ele>
      </trkpt>
      <trkpt lat="43.818171" lon="11.143692">
        <ele>36</ele>
      </trkpt>
      <trkpt lat="43.818305" lon="11.143778">
        <ele>36</ele>
      </trkpt>
      <trkpt lat="43.818111" lon="11.144342">
        <ele>36</ele>
      </trkpt>
      <trkpt lat="43.818074" lon="11.144419">
        <ele>36</ele>
      </trkpt>
      <trkpt lat="43.818022" lon="11.14456">
        <ele>36</ele>
      </trkpt>
      <trkpt lat="43.818046" lon="11.144641">
        <ele>36.08</ele>
      </trkpt>
      <trkpt lat="43.818069" lon="11.144669">
        <ele>36.22</ele>
      </trkpt>
      <trkpt lat="43.818102" lon="11.144672">
        <ele>36.39</ele>
      </trkpt>
      <trkpt lat="43.818161" lon="11.144651">
        <ele>36.55</ele>
      </trkpt>
      <trkpt lat="43.819078" lon="11.143384">
        <ele>37</ele>
      </trkpt>
      <trkpt lat="43.819478" lon="11.14286">
        <ele>37</ele>
      </trkpt>
      <trkpt lat="43.819794" lon="11.142479">
        <ele>37</ele>
      </trkpt>
      <trkpt lat="43.819916" lon="11.142311">
        <ele>37</ele>
      </trkpt>
      <trkpt lat="43.820114" lon="11.141971">
        <ele>37</ele>
      </trkpt>
      <trkpt lat="43.819633" lon="11.141567">
        <ele>37</ele>
      </trkpt>
      <trkpt lat="43.819308" lon="11.141331">
        <ele>37</ele>
      </trkpt>
      <trkpt lat="43.819272" lon="11.141411">
        <ele>37</ele>
      </trkpt>
      <trkpt lat="43.818739" lon="11.140994">
        <ele>37</ele>
      </trkpt>
      <trkpt lat="43.818743" lon="11.140981">
        <ele>37</ele>
      </trkpt>
      <trkpt lat="43.819087" lon="11.139992">
        <ele>37</ele>
      </trkpt>
      <trkpt lat="43.819256" lon="11.140087">
        <ele>37</ele>
      </trkpt>
      <trkpt lat="43.819732" lon="11.140405">
        <ele>37</ele>
      </trkpt>
      <trkpt lat="43.8195" lon="11.140954">
        <ele>37</ele>
      </trkpt>
      <trkpt lat="43.819435" lon="11.141096">
        <ele>37</ele>
      </trkpt>
      <trkpt lat="43.819272" lon="11.141411">
        <ele>37</ele>
      </trkpt>
      <trkpt lat="43.818739" lon="11.140994">
        <ele>37</ele>
      </trkpt>
      <trkpt lat="43.818739" lon="11.140994">
        <ele>37</ele>
      </trkpt>
      <trkpt lat="43.819087" lon="11.139992">
        <ele>37</ele>
      </trkpt>
      <trkpt lat="43.818427" lon="11.139617">
        <ele>37</ele>
      </trkpt>
      <trkpt lat="43.816858" lon="11.13877">
        <ele>36</ele>
      </trkpt>
      <trkpt lat="43.816817" lon="11.138889">
        <ele>36</ele>
      </trkpt>
      <trkpt lat="43.816577" lon="11.13972">
        <ele>36</ele>
      </trkpt>
      <trkpt lat="43.816249" lon="11.140894">
        <ele>36</ele>
      </trkpt>
      <trkpt lat="43.816106" lon="11.141282">
        <ele>36</ele>
      </trkpt>
      <trkpt lat="43.815948" lon="11.141645">
        <ele>36</ele>
      </trkpt>
      <trkpt lat="43.815826" lon="11.141876">
        <ele>36</ele>
      </trkpt>
      <trkpt lat="43.815541" lon="11.142317">
        <ele>36</ele>
      </trkpt>
      <trkpt lat="43.81607" lon="11.14261">
        <ele>36</ele>
      </trkpt>
      <trkpt lat="43.816875" lon="11.143084">
        <ele>36</ele>
      </trkpt>
      <trkpt lat="43.816992" lon="11.142768">
        <ele>36</ele>
      </trkpt>
      <trkpt lat="43.817376" lon="11.141632">
        <ele>36</ele>
      </trkpt>
      <trkpt lat="43.816249" lon="11.140894">
        <ele>36</ele>
      </trkpt>
      <trkpt lat="43.816106" lon="11.141282">
        <ele>36</ele>
      </trkpt>
      <trkpt lat="43.815948" lon="11.141645">
        <ele>36</ele>
      </trkpt>
      <trkpt lat="43.815826" lon="11.141876">
        <ele>36</ele>
      </trkpt>
      <trkpt lat="43.815541" lon="11.142317">
        <ele>36</ele>
      </trkpt>
      <trkpt lat="43.81607" lon="11.14261">
        <ele>36</ele>
      </trkpt>
      <trkpt lat="43.816875" lon="11.143084">
        <ele>36</ele>
      </trkpt>
      <trkpt lat="43.816962" lon="11.142857">
        <ele>36</ele>
      </trkpt>
      <trkpt lat="43.816795" lon="11.142741">
        <ele>36</ele>
      </trkpt>
      <trkpt lat="43.816734" lon="11.142699">
        <ele>36</ele>
      </trkpt>
      <trkpt lat="43.816695" lon="11.142835">
        <ele>36</ele>
      </trkpt>
      <trkpt lat="43.816662" lon="11.142952">
        <ele>36</ele>
      </trkpt>
      <trkpt lat="43.816875" lon="11.143084">
        <ele>36</ele>
      </trkpt>
      <trkpt lat="43.816962" lon="11.142857">
        <ele>36</ele>
      </trkpt>
      <trkpt lat="43.817682" lon="11.143375">
        <ele>36</ele>
      </trkpt>
      <trkpt lat="43.818305" lon="11.143778">
        <ele>36</ele>
      </trkpt>
      <trkpt lat="43.818111" lon="11.144342">
        <ele>36</ele>
      </trkpt>
      <trkpt lat="43.818074" lon="11.144419">
        <ele>36</ele>
      </trkpt>
      <trkpt lat="43.817955" lon="11.144723">
        <ele>36</ele>
      </trkpt>
      <trkpt lat="43.81777" lon="11.145018">
        <ele>36</ele>
      </trkpt>
      <trkpt lat="43.817231" lon="11.144564">
        <ele>36</ele>
      </trkpt>
      <trkpt lat="43.816549" lon="11.144043">
        <ele>36</ele>
      </trkpt>
      <trkpt lat="43.816575" lon="11.143972">
        <ele>36</ele>
      </trkpt>
      <trkpt lat="43.816741" lon="11.143514">
        <ele>36</ele>
      </trkpt>
      <trkpt lat="43.816844" lon="11.143184">
        <ele>36</ele>
      </trkpt>
      <trkpt lat="43.816962" lon="11.142857">
        <ele>36</ele>
      </trkpt>
      <trkpt lat="43.817682" lon="11.143375">
        <ele>36</ele>
      </trkpt>
      <trkpt lat="43.818305" lon="11.143778">
        <ele>36</ele>
      </trkpt>
      <trkpt lat="43.818111" lon="11.144342">
        <ele>36</ele>
      </trkpt>
      <trkpt lat="43.818074" lon="11.144419">
        <ele>36</ele>
      </trkpt>
      <trkpt lat="43.817955" lon="11.144723">
        <ele>36</ele>
      </trkpt>
      <trkpt lat="43.817674" lon="11.145181">
        <ele>36</ele>
      </trkpt>
      <trkpt lat="43.817658" lon="11.145268">
        <ele>36</ele>
      </trkpt>
      <trkpt lat="43.817464" lon="11.145608">
        <ele>36</ele>
      </trkpt>
      <trkpt lat="43.816292" lon="11.144676">
        <ele>36</ele>
      </trkpt>
      <trkpt lat="43.816352" lon="11.144528">
        <ele>36</ele>
      </trkpt>
      <trkpt lat="43.816549" lon="11.144043">
        <ele>36</ele>
      </trkpt>
      <trkpt lat="43.816263" lon="11.143818">
        <ele>36</ele>
      </trkpt>
      <trkpt lat="43.816048" lon="11.14434">
        <ele>36</ele>
      </trkpt>
      <trkpt lat="43.816263" lon="11.143818">
        <ele>36</ele>
      </trkpt>
      <trkpt lat="43.815275" lon="11.143031">
        <ele>36</ele>
      </trkpt>
      <trkpt lat="43.815235" lon="11.142999">
        <ele>36</ele>
      </trkpt>
      <trkpt lat="43.815213" lon="11.143097">
        <ele>36</ele>
      </trkpt>
      <trkpt lat="43.815089" lon="11.143444">
        <ele>36</ele>
      </trkpt>
      <trkpt lat="43.815213" lon="11.143097">
        <ele>36</ele>
      </trkpt>
      <trkpt lat="43.815235" lon="11.142999">
        <ele>36</ele>
      </trkpt>
      <trkpt lat="43.815116" lon="11.14302">
        <ele>36</ele>
      </trkpt>
      <trkpt lat="43.81502" lon="11.142997">
        <ele>36</ele>
      </trkpt>
      <trkpt lat="43.814977" lon="11.142912">
        <ele>36</ele>
      </trkpt>
      <trkpt lat="43.814969" lon="11.142788">
        <ele>36</ele>
      </trkpt>
      <trkpt lat="43.814988" lon="11.142677">
        <ele>36</ele>
      </trkpt>
      <trkpt lat="43.815049" lon="11.142465">
        <ele>36</ele>
      </trkpt>
      <trkpt lat="43.815045" lon="11.142396">
        <ele>36</ele>
      </trkpt>
      <trkpt lat="43.815078" lon="11.142251">
        <ele>36</ele>
      </trkpt>
      <trkpt lat="43.8151" lon="11.142102">
        <ele>36</ele>
      </trkpt>
      <trkpt lat="43.8152" lon="11.140944">
        <ele>36</ele>
      </trkpt>
      <trkpt lat="43.815286" lon="11.140077">
        <ele>36</ele>
      </trkpt>
      <trkpt lat="43.815348" lon="11.139714">
        <ele>36</ele>
      </trkpt>
      <trkpt lat="43.815484" lon="11.139164">
        <ele>36</ele>
      </trkpt>
      <trkpt lat="43.816577" lon="11.13972">
        <ele>36</ele>
      </trkpt>
      <trkpt lat="43.816249" lon="11.140894">
        <ele>36</ele>
      </trkpt>
      <trkpt lat="43.816106" lon="11.141282">
        <ele>36</ele>
      </trkpt>
      <trkpt lat="43.815948" lon="11.141645">
        <ele>36</ele>
      </trkpt>
      <trkpt lat="43.815826" lon="11.141876">
        <ele>36</ele>
      </trkpt>
      <trkpt lat="43.815541" lon="11.142317">
        <ele>36</ele>
      </trkpt>
      <trkpt lat="43.815481" lon="11.142431">
        <ele>36</ele>
      </trkpt>
      <trkpt lat="43.815417" lon="11.142553">
        <ele>36</ele>
      </trkpt>
      <trkpt lat="43.815367" lon="11.142677">
        <ele>36</ele>
      </trkpt>
      <trkpt lat="43.815284" lon="11.142879">
        <ele>36</ele>
      </trkpt>
      <trkpt lat="43.815235" lon="11.142999">
        <ele>36</ele>
      </trkpt>
      <trkpt lat="43.815116" lon="11.14302">
        <ele>36</ele>
      </trkpt>
      <trkpt lat="43.81502" lon="11.142997">
        <ele>36</ele>
      </trkpt>
      <trkpt lat="43.814977" lon="11.142912">
        <ele>36</ele>
      </trkpt>
      <trkpt lat="43.814951" lon="11.142881">
        <ele>36</ele>
      </trkpt>
      <trkpt lat="43.814914" lon="11.142859">
        <ele>36</ele>
      </trkpt>
      <trkpt lat="43.814837" lon="11.142849">
        <ele>36</ele>
      </trkpt>
      <trkpt lat="43.814777" lon="11.142878">
        <ele>36</ele>
      </trkpt>
      <trkpt lat="43.814727" lon="11.142935">
        <ele>36</ele>
      </trkpt>
      <trkpt lat="43.814705" lon="11.142985">
        <ele>36</ele>
      </trkpt>
      <trkpt lat="43.814693" lon="11.14304">
        <ele>36</ele>
      </trkpt>
      <trkpt lat="43.81469" lon="11.143098">
        <ele>36</ele>
      </trkpt>
      <trkpt lat="43.814697" lon="11.143156">
        <ele>36</ele>
      </trkpt>
      <trkpt lat="43.814715" lon="11.143208">
        <ele>36</ele>
      </trkpt>
      <trkpt lat="43.814741" lon="11.143254">
        <ele>36</ele>
      </trkpt>
      <trkpt lat="43.814772" lon="11.143287">
        <ele>36</ele>
      </trkpt>
      <trkpt lat="43.814822" lon="11.143317">
        <ele>36</ele>
      </trkpt>
      <trkpt lat="43.814914" lon="11.143456">
        <ele>36</ele>
      </trkpt>
      <trkpt lat="43.814949" lon="11.143525">
        <ele>36</ele>
      </trkpt>
      <trkpt lat="43.814995" lon="11.143647">
        <ele>36</ele>
      </trkpt>
      <trkpt lat="43.815027" lon="11.143676">
        <ele>36</ele>
      </trkpt>
      <trkpt lat="43.815088" lon="11.1437">
        <ele>36</ele>
      </trkpt>
      <trkpt lat="43.815538" lon="11.144074">
        <ele>36</ele>
      </trkpt>
      <trkpt lat="43.817464" lon="11.145608">
        <ele>36</ele>
      </trkpt>
      <trkpt lat="43.817658" lon="11.145268">
        <ele>36</ele>
      </trkpt>
      <trkpt lat="43.817708" lon="11.145226">
        <ele>36</ele>
      </trkpt>
      <trkpt lat="43.818045" lon="11.144808">
        <ele>36.18</ele>
      </trkpt>
      <trkpt lat="43.818161" lon="11.144651">
        <ele>36.55</ele>
      </trkpt>
      <trkpt lat="43.819078" lon="11.143384">
        <ele>37</ele>
      </trkpt>
      <trkpt lat="43.819478" lon="11.14286">
        <ele>37</ele>
      </trkpt>
      <trkpt lat="43.819794" lon="11.142479">
        <ele>37</ele>
      </trkpt>
      <trkpt lat="43.819916" lon="11.142311">
        <ele>37</ele>
      </trkpt>
      <trkpt lat="43.820114" lon="11.141971">
        <ele>37</ele>
      </trkpt>
      <trkpt lat="43.819633" lon="11.141567">
        <ele>37</ele>
      </trkpt>
      <trkpt lat="43.819308" lon="11.141331">
        <ele>37</ele>
      </trkpt>
      <trkpt lat="43.819272" lon="11.141411">
        <ele>37</ele>
      </trkpt>
      <trkpt lat="43.818739" lon="11.140994">
        <ele>37</ele>
      </trkpt>
      <trkpt lat="43.818748" lon="11.140966">
        <ele>37</ele>
      </trkpt>
      <trkpt lat="43.819087" lon="11.139992">
        <ele>37</ele>
      </trkpt>
      <trkpt lat="43.819256" lon="11.140087">
        <ele>37</ele>
      </trkpt>
      <trkpt lat="43.819732" lon="11.140405">
        <ele>37</ele>
      </trkpt>
      <trkpt lat="43.8195" lon="11.140954">
        <ele>37</ele>
      </trkpt>
      <trkpt lat="43.819435" lon="11.141096">
        <ele>37</ele>
      </trkpt>
      <trkpt lat="43.819272" lon="11.141411">
        <ele>37</ele>
      </trkpt>
      <trkpt lat="43.818739" lon="11.140994">
        <ele>37</ele>
      </trkpt>
      <trkpt lat="43.818739" lon="11.140994">
        <ele>37</ele>
      </trkpt>
      <trkpt lat="43.818739" lon="11.140994">
        <ele>37</ele>
      </trkpt>
      <trkpt lat="43.818739" lon="11.140994">
        <ele>37</ele>
      </trkpt>
      <trkpt lat="43.818739" lon="11.140994">
        <ele>37</ele>
      </trkpt>
      <trkpt lat="43.818739" lon="11.140992">
        <ele>36.5</ele>
      </trkpt>
      <trkpt lat="43.81853738215767" lon="11.140908542896568">
        <ele>36.48972195186183</ele>
      </trkpt>
      <trkpt lat="43.818328123659505" lon="11.141460144069763">
        <ele>36.257284544025566</ele>
      </trkpt>
      <trkpt lat="43.81817360974836" lon="11.14186743961767">
        <ele>36.249518544621516</ele>
      </trkpt>
      <trkpt lat="43.81815221130222" lon="11.142005837082678">
        <ele>36.22560991522964</ele>
      </trkpt>
    </trkseg>
  </trk>
</gpx>
